COMMENT,ORIGINATOR,NORAD_CAT_ID,OBJECT_NAME,OBJECT_TYPE,CLASSIFICATION_TYPE,INTLDES,EPOCH,EPOCH_MICROSECONDS,MEAN_MOTION,ECCENTRICITY,INCLINATION,RA_OF_ASC_NODE,ARG_OF_PERICENTER,MEAN_ANOMALY,EPHEMERIS_TYPE,ELEMENT_SET_NO,REV_AT_EPOCH,BSTAR,MEAN_MOTION_DOT,MEAN_MOTION_DDOT,FILE,TLE_LINE0,TLE_LINE1,TLE_LINE2,OBJECT_ID,OBJECT_NUMBER,SEMIMAJOR_AXIS,PERIOD,APOGEE,PERIGEE
"GENERATED VIA SPACETRACK.ORG API","JSPOC","5435","EOLE 1 (CAS-A)","PAYLOAD","U","71071A","2016-01-10 11:33:57","799008","14.54752792","0.0111092","50.1423","6.4334","8.4874","351.79","0","999","34134","8.4996e-05","1.96e-06","0","1978513","0 EOLE 1 (CAS-A)","1 05435U 71071A   16010.48191897  .00000196  00000-0  84996-4 0  9994","2 05435  50.1423   6.4334 0111092   8.4874 351.7900 14.54752792341345","1971-071A","5435","7088.304","98.985","788.915","631.424"
"GENERATED VIA SPACETRACK.ORG API","JSPOC","27604","ARIANE 44L R/B","ROCKET BODY","U","02057B","2016-01-10 11:33:58","264704","2.35347831","0.720117","7.3066","115.2033","16.5422","357.9682","0","999","10771","0.0010922","1.416e-05","0","1979034","0 ARIANE 44L R/B","1 27604U 02057B   16010.48192436 +.00001416 +00000-0 +10922-2 0  9996","2 27604 007.3066 115.2033 7201170 016.5422 357.9682 02.35347831107718","2002-057B","27604","23874.175","611.860","34688.239","303.840"
"GENERATED VIA SPACETRACK.ORG API","JSPOC","27604","ARIANE 44L R/B","ROCKET BODY","U","02057B","2016-01-10 11:33:58","264704","2.35347831","0.720117","7.3066","115.2033","16.5422","357.9682","0","999","10769","0.0010922","1.416e-05","0","1979263","0 ARIANE 44L R/B","1 27604U 02057B   16010.48192436  .00001416  00000-0  10922-2 0  9996","2 27604   7.3066 115.2033 7201170  16.5422 357.9682  2.35347831107695","2002-057B","27604","23874.175","611.860","34688.239","303.840"
"GENERATED VIA SPACETRACK.ORG API","JSPOC","3345","ESSA 7 (TOS-E)","PAYLOAD","U","68069A","2016-01-10 11:34:35","877216","12.52969697","0.0026764","101.5856","62.2316","48.7779","55.5594","0","999","16815","-3.6234e-05","-5e-07","0","1978606","0 ESSA 7 (TOS-E)","1 03345U 68069A   16010.48235969 -.00000050  00000-0 -36234-4 0  9997","2 03345 101.5856  62.2316 0026764  48.7779  55.5594 12.52969697168150","1968-069A","3345","7830.234","114.926","1473.056","1431.143"
"GENERATED VIA SPACETRACK.ORG API","JSPOC","40053","SPOT 7","PAYLOAD","U","14034A","2016-01-10 11:34:39","668448","14.58531668","0.0001082","98.2211","79.3206","75.5976","284.5346","0","999","8153","0","-4.6e-07","0","1978576","0 SPOT 7","1 40053U 14034A   16010.48240357 -.00000046  00000-0  00000+0 0  9995","2 40053  98.2211  79.3206 0001082  75.5976 284.5346 14.58531668 81530","2014-034A","40053","7076.056","98.729","698.686","697.155"
"GENERATED VIA SPACETRACK.ORG API","JSPOC","19573","COSMOS 1975","PAYLOAD","U","88093A","2016-01-10 11:34:43","398336","15.03345449","0.001342","82.522","131.8963","282.218","77.7543","0","999","48110","0.00012395","1.713e-05","0","1978534","0 COSMOS 1975","1 19573U 88093A   16010.48244674  .00001713  00000-0  12395-3 0  9995","2 19573  82.5220 131.8963 0013420 282.2180  77.7543 15.03345449481105","1988-093A","19573","6934.726","95.786","565.897","547.284"
"GENERATED VIA SPACETRACK.ORG API","JSPOC","22447","DELTA 2 R/B(1)","ROCKET BODY","U","93007B","2016-01-10 11:34:56","327232","15.20035721","0.0048719","20.8549","75.9071","52.3074","78.3853","0","999","25354","0.00015227","4.044e-05","0","1978539","0 DELTA 2 R/B(1)","1 22447U 93007B   16010.48259638  .00004044  00000-0  15227-3 0  9993","2 22447  20.8549  75.9071 0048719  52.3074  78.3853 15.20035721253547","1993-007B","22447","6883.869","94.734","539.272","472.197"
"GENERATED VIA SPACETRACK.ORG API","JSPOC","39058","COSMOS 2483","PAYLOAD","U","13001B","2016-01-10 11:35:20","716224","12.43941446","0.0017154","82.5006","69.6749","63.4304","296.8524","0","999","13548","0.00022797","4.2e-07","0","1978565","0 COSMOS 2483","1 39058U 13001B   16010.48287866  .00000042  00000-0  22797-3 0  9993","2 39058  82.5006  69.6749 0017154  63.4304 296.8524 12.43941446135482","2013-001B","39058","7868.076","115.761","1503.437","1476.444"
"GENERATED VIA SPACETRACK.ORG API","JSPOC","20149","COSMOS 2034","PAYLOAD","U","89059A","2016-01-10 11:35:29","97888","13.7340194","0.003221","82.9417","151.1865","49.6652","16.1448","0","999","32629","1.3307e-05","2.8e-07","0","1978523","0 COSMOS 2034","1 20149U 89059A   16010.48297567  .00000028  00000-0  13307-4 0  9991","2 20149  82.9417 151.1865 0032210  49.6652  16.1448 13.73401940326294","1989-059A","20149","7365.519","104.849","1011.109","963.660"
"GENERATED VIA SPACETRACK.ORG API","JSPOC","39485","COSMOS 2490","PAYLOAD","U","13076C","2016-01-10 11:35:32","635968","12.42870998","0.0022484","82.4817","23.5016","135.4784","224.8113","0","999","9270","0","1e-07","0","1978589","0 COSMOS 2490","1 39485U 13076C   16010.48301662  .00000010  00000-0  00000+0 0  9994","2 39485  82.4817  23.5016 0022484 135.4784 224.8113 12.42870998 92709","2013-076C","39485","7872.593","115.860","1512.158","1476.757"
"GENERATED VIA SPACETRACK.ORG API","JSPOC","16882","SL-14 R/B","ROCKET BODY","U","86055B","2016-01-10 11:35:32","995392","14.83001527","0.0019272","82.5206","3.7636","336.9076","137.9745","0","999","59026","2.2987e-05","2.11e-06","0","1978596","0 SL-14 R/B","1 16882U 86055B   16010.48302078  .00000211  00000-0  22987-4 0  9995","2 16882  82.5206   3.7636 0019272 336.9076 137.9745 14.83001527590269","1986-055B","16882","6998.002","97.100","633.354","606.381"
"GENERATED VIA SPACETRACK.ORG API","JSPOC","40338","YAOGAN 25A","PAYLOAD","U","14080A","2016-01-10 11:35:36","958560","13.45152532","0.0025478","63.4113","24.8936","338.9622","21.0355","0","999","5323","0","-9e-07","0","1978601","0 YAOGAN 25A","1 40338U 14080A   16010.48306665 -.00000090  00000-0  00000+0 0  9996","2 40338  63.4113  24.8936 0025478 338.9622  21.0355 13.45152532 53239","2014-080A","40338","7468.283","107.051","1109.176","1071.121"
"GENERATED VIA SPACETRACK.ORG API","JSPOC","41100","SL-4 R/B","ROCKET BODY","U","15071C","2016-01-10 11:35:51","446112","15.59028158","0.0274321","98.1801","24.8726","305.8705","51.7366","0","999","556","0.00038081","0.00211165","2.673e-06","1978646","0 SL-4 R/B","1 41100U 15071C   16010.48323433  .00211165  26730-5  38081-3 0  9990","2 41100  98.1801  24.8726 0274321 305.8705  51.7366 15.59028158  5569","2015-071C","41100","6768.605","92.365","576.147","204.793"
"GENERATED VIA SPACETRACK.ORG API","JSPOC","4048","THOR BURNER 2 R/B","ROCKET BODY","U","69062B","2016-01-10 11:35:52","973664","14.30818488","0.0042625","98.7481","217.1647","146.812","213.5749","0","999","41951","3.7229e-05","5.4e-07","0","1978493","0 THOR BURNER 2 R/B","1 04048U 69062B   16010.48325201  .00000054  00000-0  37229-4 0  9998","2 04048  98.7481 217.1647 0042625 146.8120 213.5749 14.30818488419510","1969-062B","4048","7167.133","100.641","819.548","758.448"
"GENERATED VIA SPACETRACK.ORG API","JSPOC","40340","YAOGAN 25C","PAYLOAD","U","14080C","2016-01-10 11:35:53","832480","13.45152391","0.0025552","63.4084","25.7399","339.2067","20.7918","0","999","5321","0","-9e-07","0","1978600","0 YAOGAN 25C","1 40340U 14080C   16010.48326195 -.00000090  00000-0  00000+0 0  9999","2 40340  63.4084  25.7399 0025552 339.2067  20.7918 13.45152391 53214","2014-080C","40340","7468.284","107.051","1109.232","1071.066"
"GENERATED VIA SPACETRACK.ORG API","JSPOC","40339","YAOGAN 25B","PAYLOAD","U","14080B","2016-01-10 11:35:56","275008","13.45152328","0.0025516","63.4097","24.9016","339.2274","20.7714","0","999","5323","0","-9e-07","0","1978565","0 YAOGAN 25B","1 40339U 14080B   16010.48329022 -.00000090  00000-0  00000+0 0  9999","2 40339  63.4097  24.9016 0025516 339.2274  20.7714 13.45152328 53239","2014-080B","40339","7468.284","107.051","1109.205","1071.093"
"GENERATED VIA SPACETRACK.ORG API","JSPOC","801","OPS 4412 (TRANSIT 9)","PAYLOAD","U","64026A","2016-01-10 11:36:13","53024","14.14226886","0.0051156","90.5024","335.3194","68.1362","292.5254","0","999","64765","0.00011461","2.31e-06","0","1978559","0 OPS 4412 (TRANSIT 9)","1 00801U 64026A   16010.48348441  .00000231  00000-0  11461-3 0  9993","2 00801  90.5024 335.3194 0051156  68.1362 292.5254 14.14226886647652","1964-026A","801","7223.080","101.822","881.895","807.994"
"GENERATED VIA SPACETRACK.ORG API","JSPOC","40426","FALCON 9 R/B","ROCKET BODY","U","15010C","2016-01-10 11:36:15","266592","1.16235147","0.8230491","25.8198","357.1985","259.8745","10.3243","0","999","365","0.00093506","-1.31e-06","0","1979136","0 FALCON 9 R/B","1 40426U 15010C   16010.48351003 -.00000131  00000-0  93506-3 0  9997","2 40426  25.8198 357.1985 8230491 259.8745  10.3243  1.16235147  3653","2015-010C","40426","38209.984","1238.867","63280.542","383.156"
"GENERATED VIA SPACETRACK.ORG API","JSPOC","11847","SL-6 R/B(2)","ROCKET BODY","U","80050B","2016-01-10 11:36:18","601632","1.9957651","0.7389062","64.1738","98.131","5.0465","359.5553","0","999","25885","-0.00066564","5e-08","0","1978490","0 SL-6 R/B(2)","1 11847U 80050B   16010.48354863  .00000005  00000-0 -66564-3 0  9999","2 11847  64.1738  98.1310 7389062   5.0465 359.5553  1.99576510258855","1980-050B","11847","26647.853","721.527","39959.981","579.454"
"GENERATED VIA SPACETRACK.ORG API","JSPOC","1244","GGSE 2","PAYLOAD","U","65016B","2016-01-10 11:36:21","665376","13.95541778","0.0018428","70.0791","18.3875","53.0199","307.259","0","999","58638","3.1057e-05","-1e-07","0","1979034","0 GGSE 2","1  1244U 65016B   16010.48358409 -.00000010 +00000-0 +31057-4 0  9990","2  1244 070.0791 018.3875 0018428 053.0199 307.2590 13.95541778586385","1965-016B","1244","7287.411","103.185","922.705","895.847"
